{
  "type": "FeatureCollection",
  "features": [
    {
      "type": "Feature",
      "properties": {
        "norad_id": 43719,
        "name": "HYSIS",
        "group": "resource",
        "lat": -75.05689751073447,
        "lon": 73.10590043636095,
        "alt_km": 641.9781701431393,
        "timestamp": "2025-12-04T05:42:43.035600+00:00",
        "meta_object_name": "HYSIS",
        "meta_object_id": "2018-096A",
        "meta_epoch": "2025-12-03T23:33:53.273376",
        "meta_mean_motion": 14.78603565,
        "meta_eccentricity": 0.00016224,
        "meta_inclination": 98.0109,
        "meta_ra_of_asc_node": 41.0023,
        "meta_arg_of_pericenter": 67.6656,
        "meta_mean_anomaly": 292.4727,
        "meta_ephemeris_type": 0,
        "meta_classification_type": "U",
        "meta_norad_cat_id": 43719,
        "meta_element_set_no": 999,
        "meta_rev_at_epoch": 37857,
        "meta_bstar": 3.4560417e-05,
        "meta_mean_motion_dot": 2.01e-06,
        "meta_mean_motion_ddot": 0,
        "tle_line1": "1 43719U 18096A   25337.98186659  .00000201  00000+0  34560-4 0  9994",
        "tle_line2": "2 43719  98.0109  41.0023 0001622  67.6656 292.4727 14.78603565378578"
      },
      "geometry": {
        "type": "Point",
        "coordinates": [
          73.10590043636095,
          -75.05689751073447
        ]
      }
    },
    {
      "type": "Feature",
      "properties": {
        "norad_id": 43783,
        "name": "KAZSTSAT",
        "group": "resource",
        "lat": -65.38571819428368,
        "lon": 177.18019908347458,
        "alt_km": 578.2349121145007,
        "timestamp": "2025-12-04T05:42:43.035610+00:00",
        "meta_object_name": "KAZSTSAT",
        "meta_object_id": "2018-099AB",
        "meta_epoch": "2025-12-03T14:12:00.344160",
        "meta_mean_motion": 14.99301912,
        "meta_eccentricity": 0.00065178,
        "meta_inclination": 97.4553,
        "meta_ra_of_asc_node": 13.17,
        "meta_arg_of_pericenter": 4.0766,
        "meta_mean_anomaly": 356.051,
        "meta_ephemeris_type": 0,
        "meta_classification_type": "U",
        "meta_norad_cat_id": 43783,
        "meta_element_set_no": 999,
        "meta_rev_at_epoch": 38199,
        "meta_bstar": 0.00023638969,
        "meta_mean_motion_dot": 2.832e-05,
        "meta_mean_motion_ddot": 0,
        "tle_line1": "1 43783U 18099AB  25337.59167065  .00002832  00000+0  23639-3 0  9991",
        "tle_line2": "2 43783  97.4553  13.1700 0006517   4.0766 356.0510 14.99301912381993"
      },
      "geometry": {
        "type": "Point",
        "coordinates": [
          177.18019908347458,
          -65.38571819428368
        ]
      }
    },
    {
      "type": "Feature",
      "properties": {
        "norad_id": 43831,
        "name": "SAUDISAT 5A",
        "group": "resource",
        "lat": -37.105796908049,
        "lon": -146.99920847121356,
        "alt_km": 499.2002355593322,
        "timestamp": "2025-12-04T05:42:43.035623+00:00",
        "meta_object_name": "SAUDISAT 5A",
        "meta_object_id": "2018-102A",
        "meta_epoch": "2025-12-04T00:02:24.916992",
        "meta_mean_motion": 15.25485644,
        "meta_eccentricity": 0.00117969,
        "meta_inclination": 97.3372,
        "meta_ra_of_asc_node": 38.3626,
        "meta_arg_of_pericenter": 103.0027,
        "meta_mean_anomaly": 257.2529,
        "meta_ephemeris_type": 0,
        "meta_classification_type": "U",
        "meta_norad_cat_id": 43831,
        "meta_element_set_no": 999,
        "meta_rev_at_epoch": 38589,
        "meta_bstar": 0.00048380308,
        "meta_mean_motion_dot": 0.0001221,
        "meta_mean_motion_ddot": 0,
        "tle_line1": "1 43831U 18102A   25338.00167728  .00012210  00000+0  48380-3 0  9994",
        "tle_line2": "2 43831  97.3372  38.3626 0011796 103.0027 257.2529 15.25485644385896"
      },
      "geometry": {
        "type": "Point",
        "coordinates": [
          -146.99920847121356,
          -37.105796908049
        ]
      }
    },
    {
      "type": "Feature",
      "properties": {
        "norad_id": 43833,
        "name": "SAUDISAT 5B",
        "group": "resource",
        "lat": -76.5654644113872,
        "lon": -171.37513289155137,
        "alt_km": 503.29317353293027,
        "timestamp": "2025-12-04T05:42:43.035633+00:00",
        "meta_object_name": "SAUDISAT 5B",
        "meta_object_id": "2018-102C",
        "meta_epoch": "2025-12-03T23:51:38.245824",
        "meta_mean_motion": 15.2584306,
        "meta_eccentricity": 0.00124858,
        "meta_inclination": 97.3467,
        "meta_ra_of_asc_node": 41.078,
        "meta_arg_of_pericenter": 105.5442,
        "meta_mean_anomaly": 254.7176,
        "meta_ephemeris_type": 0,
        "meta_classification_type": "U",
        "meta_norad_cat_id": 43833,
        "meta_element_set_no": 999,
        "meta_rev_at_epoch": 38600,
        "meta_bstar": 0.00047835343,
        "meta_mean_motion_dot": 0.00012205,
        "meta_mean_motion_ddot": 0,
        "tle_line1": "1 43833U 18102C   25337.99419266  .00012205  00000+0  47835-3 0  9998",
        "tle_line2": "2 43833  97.3467  41.0780 0012485 105.5442 254.7176 15.25843060386003"
      },
      "geometry": {
        "type": "Point",
        "coordinates": [
          -171.37513289155137,
          -76.5654644113872
        ]
      }
    },
    {
      "type": "Feature",
      "properties": {
        "norad_id": 44622,
        "name": "GAOFEN-10R",
        "group": "resource",
        "lat": 77.5714203803002,
        "lon": -114.09959568463728,
        "alt_km": 607.8424659024868,
        "timestamp": "2025-12-04T05:42:43.035643+00:00",
        "meta_object_name": "GAOFEN-10R",
        "meta_object_id": "2019-066A",
        "meta_epoch": "2025-12-04T00:29:31.236288",
        "meta_mean_motion": 14.82743191,
        "meta_eccentricity": 0.00082251,
        "meta_inclination": 98.0264,
        "meta_ra_of_asc_node": 285.4936,
        "meta_arg_of_pericenter": 65.7752,
        "meta_mean_anomaly": 294.4319,
        "meta_ephemeris_type": 0,
        "meta_classification_type": "U",
        "meta_norad_cat_id": 44622,
        "meta_element_set_no": 999,
        "meta_rev_at_epoch": 33345,
        "meta_bstar": 0.0004459857,
        "meta_mean_motion_dot": 3.55e-05,
        "meta_mean_motion_ddot": 0,
        "tle_line1": "1 44622U 19066A   25338.02050042  .00003550  00000+0  44599-3 0  9990",
        "tle_line2": "2 44622  98.0264 285.4936 0008225  65.7752 294.4319 14.82743191333455"
      },
      "geometry": {
        "type": "Point",
        "coordinates": [
          -114.09959568463728,
          77.5714203803002
        ]
      }
    },
    {
      "type": "Feature",
      "properties": {
        "norad_id": 44804,
        "name": "CARTOSAT-3",
        "group": "resource",
        "lat": -28.16781482499079,
        "lon": -146.09505796370755,
        "alt_km": 514.7580176266702,
        "timestamp": "2025-12-04T05:42:43.035653+00:00",
        "meta_object_name": "CARTOSAT-3",
        "meta_object_id": "2019-081A",
        "meta_epoch": "2025-12-03T22:28:34.228128",
        "meta_mean_motion": 15.19246073,
        "meta_eccentricity": 0.00138642,
        "meta_inclination": 97.4603,
        "meta_ra_of_asc_node": 37.6308,
        "meta_arg_of_pericenter": 114.825,
        "meta_mean_anomaly": 245.4428,
        "meta_ephemeris_type": 0,
        "meta_classification_type": "U",
        "meta_norad_cat_id": 44804,
        "meta_element_set_no": 999,
        "meta_rev_at_epoch": 33382,
        "meta_bstar": 0.00030082995,
        "meta_mean_motion_dot": 6.287e-05,
        "meta_mean_motion_ddot": 0,
        "tle_line1": "1 44804U 19081A   25337.93650727  .00006287  00000+0  30083-3 0  9997",
        "tle_line2": "2 44804  97.4603  37.6308 0013864 114.8250 245.4428 15.19246073333827"
      },
      "geometry": {
        "type": "Point",
        "coordinates": [
          -146.09505796370755,
          -28.16781482499079
        ]
      }
    },
    {
      "type": "Feature",
      "properties": {
        "norad_id": 44819,
        "name": "GAOFEN-12 01",
        "group": "resource",
        "lat": 51.69383006308649,
        "lon": -25.267643542632996,
        "alt_km": 622.947277826931,
        "timestamp": "2025-12-04T05:42:43.035663+00:00",
        "meta_object_name": "GAOFEN-12 01",
        "meta_object_id": "2019-082A",
        "meta_epoch": "2025-12-04T00:36:37.724832",
        "meta_mean_motion": 14.80641726,
        "meta_eccentricity": 0.00012513,
        "meta_inclination": 97.8128,
        "meta_ra_of_asc_node": 344.5352,
        "meta_arg_of_pericenter": 293.9449,
        "meta_mean_anomaly": 66.1632,
        "meta_ephemeris_type": 0,
        "meta_classification_type": "U",
        "meta_norad_cat_id": 44819,
        "meta_element_set_no": 999,
        "meta_rev_at_epoch": 32521,
        "meta_bstar": 0.00013820638,
        "meta_mean_motion_dot": 1.011e-05,
        "meta_mean_motion_ddot": 0,
        "tle_line1": "1 44819U 19082A   25338.02543663  .00001011  00000+0  13821-3 0  9996",
        "tle_line2": "2 44819  97.8128 344.5352 0001251 293.9449  66.1632 14.80641726325214"
      },
      "geometry": {
        "type": "Point",
        "coordinates": [
          -25.267643542632996,
          51.69383006308649
        ]
      }
    }
  ]
}